[{"OBJECT_NAME":"PLEIADES 1A","OBJECT_ID":"2011-076F","EPOCH":"2026-03-09T22:28:30.112032","MEAN_MOTION":14.5854003,"ECCENTRICITY":0.00017089,"INCLINATION":98.204,"RA_OF_ASC_NODE":145.3465,"ARG_OF_PERICENTER":88.1046,"MEAN_ANOMALY":20.7914,"EPHEMERIS_TYPE":0,"CLASSIFICATION_TYPE":"U","NORAD_CAT_ID":38012,"ELEMENT_SET_NO":999,"REV_AT_EPOCH":75752,"BSTAR":9.8090711e-5,"MEAN_MOTION_DOT":4.1e-6,"MEAN_MOTION_DDOT":0},{"OBJECT_NAME":"COSMOS 2251 DEB","OBJECT_ID":"1993-036YF","EPOCH":"2026-03-09T20:09:31.112352","MEAN_MOTION":14.58414598,"ECCENTRICITY":0.0012017,"INCLINATION":74.032,"RA_OF_ASC_NODE":343.0542,"ARG_OF_PERICENTER":66.8207,"MEAN_ANOMALY":359.5675,"EPHEMERIS_TYPE":0,"CLASSIFICATION_TYPE":"U","NORAD_CAT_ID":34685,"ELEMENT_SET_NO":999,"REV_AT_EPOCH":89801,"BSTAR":0.0011009014,"MEAN_MOTION_DOT":5.083e-5,"MEAN_MOTION_DDOT":0}]
